CCSDS_OMM_VERS = 2.0
CREATION_DATE  = 
ORIGINATOR     = 

OBJECT_NAME    = UNKNOWN
OBJECT_ID      = 
CENTER_NAME    = EARTH
REF_FRAME      = TEME
TIME_SYSTEM    = UTC
MEAN_ELEMENT_THEORY = SGP/SGP4

EPOCH          = 2025-11-15T03:56:20.103648
MEAN_MOTION    = 11.27807342
ECCENTRICITY   = .01465194
INCLINATION    = 64.7987
RA_OF_ASC_NODE = 271.7586
ARG_OF_PERICENTER = 69.7618
MEAN_ANOMALY   = 291.8991

EPHEMERIS_TYPE = 0
CLASSIFICATION_TYPE = U
NORAD_CAT_ID   = 270071
ELEMENT_SET_NO = 999
REV_AT_EPOCH   = 24594
BSTAR          = .60776446E-3
MEAN_MOTION_DOT = -.21E-6
MEAN_MOTION_DDOT = 0

CCSDS_OMM_VERS = 2.0
CREATION_DATE  = 
ORIGINATOR     = 

OBJECT_NAME    = UNKNOWN
OBJECT_ID      = 
CENTER_NAME    = EARTH
REF_FRAME      = TEME
TIME_SYSTEM    = UTC
MEAN_ELEMENT_THEORY = SGP/SGP4

EPOCH          = 2025-11-09T04:33:19.380960
MEAN_MOTION    = 11.27760531
ECCENTRICITY   = .01489688
INCLINATION    = 64.8112
RA_OF_ASC_NODE = 290.8112
ARG_OF_PERICENTER = 52.2949
MEAN_ANOMALY   = 309.1375

EPHEMERIS_TYPE = 0
CLASSIFICATION_TYPE = U
NORAD_CAT_ID   = 270072
ELEMENT_SET_NO = 999
REV_AT_EPOCH   = 24519
BSTAR          = .78907508E-3
MEAN_MOTION_DOT = -.15E-6
MEAN_MOTION_DDOT = 0

CCSDS_OMM_VERS = 2.0
CREATION_DATE  = 
ORIGINATOR     = 

OBJECT_NAME    = UNKNOWN
OBJECT_ID      = 
CENTER_NAME    = EARTH
REF_FRAME      = TEME
TIME_SYSTEM    = UTC
MEAN_ELEMENT_THEORY = SGP/SGP4

EPOCH          = 2025-11-19T09:36:36.350208
MEAN_MOTION    = 13.23006773
ECCENTRICITY   = .0159978
INCLINATION    = 100.3447
RA_OF_ASC_NODE = 21.9093
ARG_OF_PERICENTER = 199.8244
MEAN_ANOMALY   = 159.6608

EPHEMERIS_TYPE = 0
CLASSIFICATION_TYPE = U
NORAD_CAT_ID   = 270073
ELEMENT_SET_NO = 999
REV_AT_EPOCH   = 28857
BSTAR          = .19996658E-2
MEAN_MOTION_DOT = .855E-5
MEAN_MOTION_DDOT = 0

CCSDS_OMM_VERS = 2.0
CREATION_DATE  = 
ORIGINATOR     = 

OBJECT_NAME    = UNKNOWN
OBJECT_ID      = 
CENTER_NAME    = EARTH
REF_FRAME      = TEME
TIME_SYSTEM    = UTC
MEAN_ELEMENT_THEORY = SGP/SGP4

EPOCH          = 2025-11-03T01:58:29.745408
MEAN_MOTION    = 12.85982539
ECCENTRICITY   = .04641447
INCLINATION    = 63.2994
RA_OF_ASC_NODE = 243.3000
ARG_OF_PERICENTER = 14.5339
MEAN_ANOMALY   = 346.8495

EPHEMERIS_TYPE = 0
CLASSIFICATION_TYPE = U
NORAD_CAT_ID   = 270074
ELEMENT_SET_NO = 999
REV_AT_EPOCH   = 27858
BSTAR          = .16193556E-2
MEAN_MOTION_DOT = .562E-5
MEAN_MOTION_DDOT = 0

CCSDS_OMM_VERS = 2.0
CREATION_DATE  = 
ORIGINATOR     = 

OBJECT_NAME    = UNKNOWN
OBJECT_ID      = 
CENTER_NAME    = EARTH
REF_FRAME      = TEME
TIME_SYSTEM    = UTC
MEAN_ELEMENT_THEORY = SGP/SGP4

EPOCH          = 2025-11-19T15:48:10.964736
MEAN_MOTION    = 14.30283436
ECCENTRICITY   = .00978785
INCLINATION    = 99.2761
RA_OF_ASC_NODE = 287.9269
ARG_OF_PERICENTER = 197.5815
MEAN_ANOMALY   = 162.1969

EPHEMERIS_TYPE = 0
CLASSIFICATION_TYPE = U
NORAD_CAT_ID   = 270075
ELEMENT_SET_NO = 999
REV_AT_EPOCH   = 30491
BSTAR          = .61529132E-2
MEAN_MOTION_DOT = .16807E-3
MEAN_MOTION_DDOT = 0

CCSDS_OMM_VERS = 2.0
CREATION_DATE  = 
ORIGINATOR     = 

OBJECT_NAME    = UNKNOWN
OBJECT_ID      = 
CENTER_NAME    = EARTH
REF_FRAME      = TEME
TIME_SYSTEM    = UTC
MEAN_ELEMENT_THEORY = SGP/SGP4

EPOCH          = 2025-11-16T16:29:45.285216
MEAN_MOTION    = 13.66609273
ECCENTRICITY   = .02693669
INCLINATION    = 98.3449
RA_OF_ASC_NODE = 126.8718
ARG_OF_PERICENTER = 342.7924
MEAN_ANOMALY   = 16.4225

EPHEMERIS_TYPE = 0
CLASSIFICATION_TYPE = U
NORAD_CAT_ID   = 270077
ELEMENT_SET_NO = 999
REV_AT_EPOCH   = 29739
BSTAR          = .14169226E-2
MEAN_MOTION_DOT = .1475E-4
MEAN_MOTION_DDOT = 0

CCSDS_OMM_VERS = 2.0
CREATION_DATE  = 
ORIGINATOR     = 

OBJECT_NAME    = UNKNOWN
OBJECT_ID      = 
CENTER_NAME    = EARTH
REF_FRAME      = TEME
TIME_SYSTEM    = UTC
MEAN_ELEMENT_THEORY = SGP/SGP4

EPOCH          = 2025-11-20T14:29:40.866144
MEAN_MOTION    = 14.35800028
ECCENTRICITY   = .00157978
INCLINATION    = 86.3926
RA_OF_ASC_NODE = 87.9971
ARG_OF_PERICENTER = 303.6205
MEAN_ANOMALY   = 56.3484

EPHEMERIS_TYPE = 0
CLASSIFICATION_TYPE = U
NORAD_CAT_ID   = 270078
ELEMENT_SET_NO = 999
REV_AT_EPOCH   = 31326
BSTAR          = .29988559E-3
MEAN_MOTION_DOT = .888E-5
MEAN_MOTION_DDOT = 0

CCSDS_OMM_VERS = 2.0
CREATION_DATE  = 
ORIGINATOR     = 

OBJECT_NAME    = UNKNOWN
OBJECT_ID      = 
CENTER_NAME    = EARTH
REF_FRAME      = TEME
TIME_SYSTEM    = UTC
MEAN_ELEMENT_THEORY = SGP/SGP4

EPOCH          = 2025-11-13T05:45:03.243168
MEAN_MOTION    = 12.38294172
ECCENTRICITY   = .01612365
INCLINATION    = 56.0439
RA_OF_ASC_NODE = 139.1440
ARG_OF_PERICENTER = 0.9350
MEAN_ANOMALY   = 359.1825

EPHEMERIS_TYPE = 0
CLASSIFICATION_TYPE = U
NORAD_CAT_ID   = 270079
ELEMENT_SET_NO = 999
REV_AT_EPOCH   = 26969
BSTAR          = .58349399E-3
MEAN_MOTION_DOT = -.13E-6
MEAN_MOTION_DDOT = 0

CCSDS_OMM_VERS = 2.0
CREATION_DATE  = 
ORIGINATOR     = 

OBJECT_NAME    = UNKNOWN
OBJECT_ID      = 
CENTER_NAME    = EARTH
REF_FRAME      = TEME
TIME_SYSTEM    = UTC
MEAN_ELEMENT_THEORY = SGP/SGP4

EPOCH          = 2025-11-14T00:45:02.924640
MEAN_MOTION    = 12.96536101
ECCENTRICITY   = .00171897
INCLINATION    = 90.2409
RA_OF_ASC_NODE = 345.3282
ARG_OF_PERICENTER = 302.2406
MEAN_ANOMALY   = 57.7048

EPHEMERIS_TYPE = 0
CLASSIFICATION_TYPE = U
NORAD_CAT_ID   = 270081
ELEMENT_SET_NO = 999
REV_AT_EPOCH   = 28211
BSTAR          = .14732898E-3
MEAN_MOTION_DOT = .49E-6
MEAN_MOTION_DDOT = 0

CCSDS_OMM_VERS = 2.0
CREATION_DATE  = 
ORIGINATOR     = 

OBJECT_NAME    = UNKNOWN
OBJECT_ID      = 
CENTER_NAME    = EARTH
REF_FRAME      = TEME
TIME_SYSTEM    = UTC
MEAN_ELEMENT_THEORY = SGP/SGP4

EPOCH          = 2025-11-13T12:31:48.499104
MEAN_MOTION    = 13.98320167
ECCENTRICITY   = .02215739
INCLINATION    = 74.0147
RA_OF_ASC_NODE = 48.6085
ARG_OF_PERICENTER = 217.8447
MEAN_ANOMALY   = 140.6934

EPHEMERIS_TYPE = 0
CLASSIFICATION_TYPE = U
NORAD_CAT_ID   = 270082
ELEMENT_SET_NO = 999
REV_AT_EPOCH   = 30321
BSTAR          = .54402923E-2
MEAN_MOTION_DOT = .9564E-4
MEAN_MOTION_DDOT = 0

CCSDS_OMM_VERS = 2.0
CREATION_DATE  = 
ORIGINATOR     = 

OBJECT_NAME    = UNKNOWN
OBJECT_ID      = 
CENTER_NAME    = EARTH
REF_FRAME      = TEME
TIME_SYSTEM    = UTC
MEAN_ELEMENT_THEORY = SGP/SGP4

EPOCH          = 2025-11-19T13:30:53.668224
MEAN_MOTION    = 15.26587275
ECCENTRICITY   = .00132276
INCLINATION    = 74.0173
RA_OF_ASC_NODE = 267.0361
ARG_OF_PERICENTER = 123.2149
MEAN_ANOMALY   = 237.0322

EPHEMERIS_TYPE = 0
CLASSIFICATION_TYPE = U
NORAD_CAT_ID   = 270083
ELEMENT_SET_NO = 999
REV_AT_EPOCH   = 31817
BSTAR          = .40099573E-2
MEAN_MOTION_DOT = .106727E-2
MEAN_MOTION_DDOT = 0

CCSDS_OMM_VERS = 2.0
CREATION_DATE  = 
ORIGINATOR     = 

OBJECT_NAME    = UNKNOWN
OBJECT_ID      = 
CENTER_NAME    = EARTH
REF_FRAME      = TEME
TIME_SYSTEM    = UTC
MEAN_ELEMENT_THEORY = SGP/SGP4

EPOCH          = 2025-11-20T09:01:13.524672
MEAN_MOTION    = 13.77945413
ECCENTRICITY   = .03981441
INCLINATION    = 72.8766
RA_OF_ASC_NODE = 205.0722
ARG_OF_PERICENTER = 281.9590
MEAN_ANOMALY   = 73.7163

EPHEMERIS_TYPE = 0
CLASSIFICATION_TYPE = U
NORAD_CAT_ID   = 270084
ELEMENT_SET_NO = 999
REV_AT_EPOCH   = 29688
BSTAR          = .36981718E-2
MEAN_MOTION_DOT = .6666E-4
MEAN_MOTION_DDOT = 0

CCSDS_OMM_VERS = 2.0
CREATION_DATE  = 
ORIGINATOR     = 

OBJECT_NAME    = UNKNOWN
OBJECT_ID      = 
CENTER_NAME    = EARTH
REF_FRAME      = TEME
TIME_SYSTEM    = UTC
MEAN_ELEMENT_THEORY = SGP/SGP4

EPOCH          = 2025-11-18T11:36:21.851136
MEAN_MOTION    = 12.80528335
ECCENTRICITY   = .06623594
INCLINATION    = 99.2728
RA_OF_ASC_NODE = 232.4932
ARG_OF_PERICENTER = 27.9941
MEAN_ANOMALY   = 335.5188

EPHEMERIS_TYPE = 0
CLASSIFICATION_TYPE = U
NORAD_CAT_ID   = 270085
ELEMENT_SET_NO = 999
REV_AT_EPOCH   = 27834
BSTAR          = .81903479E-2
MEAN_MOTION_DOT = .4742E-4
MEAN_MOTION_DDOT = 0

CCSDS_OMM_VERS = 2.0
CREATION_DATE  = 
ORIGINATOR     = 

OBJECT_NAME    = UNKNOWN
OBJECT_ID      = 
CENTER_NAME    = EARTH
REF_FRAME      = TEME
TIME_SYSTEM    = UTC
MEAN_ELEMENT_THEORY = SGP/SGP4

EPOCH          = 2025-11-18T23:25:40.359648
MEAN_MOTION    = 14.90961470
ECCENTRICITY   = .00251965
INCLINATION    = 86.3502
RA_OF_ASC_NODE = 49.6304
ARG_OF_PERICENTER = 172.5165
MEAN_ANOMALY   = 187.6444

EPHEMERIS_TYPE = 0
CLASSIFICATION_TYPE = U
NORAD_CAT_ID   = 270086
ELEMENT_SET_NO = 999
REV_AT_EPOCH   = 7803
BSTAR          = .37643992E-2
MEAN_MOTION_DOT = .3757E-3
MEAN_MOTION_DDOT = 0

CCSDS_OMM_VERS = 2.0
CREATION_DATE  = 
ORIGINATOR     = 

OBJECT_NAME    = UNKNOWN
OBJECT_ID      = 
CENTER_NAME    = EARTH
REF_FRAME      = TEME
TIME_SYSTEM    = UTC
MEAN_ELEMENT_THEORY = SGP/SGP4

EPOCH          = 2025-11-11T01:02:07.848960
MEAN_MOTION    = 12.81474329
ECCENTRICITY   = .07213362
INCLINATION    = 72.8111
RA_OF_ASC_NODE = 238.9424
ARG_OF_PERICENTER = 93.3170
MEAN_ANOMALY   = 275.0609

EPHEMERIS_TYPE = 0
CLASSIFICATION_TYPE = U
NORAD_CAT_ID   = 270087
ELEMENT_SET_NO = 999
REV_AT_EPOCH   = 27745
BSTAR          = .61316752E-2
MEAN_MOTION_DOT = .4333E-4
MEAN_MOTION_DDOT = 0

CCSDS_OMM_VERS = 2.0
CREATION_DATE  = 
ORIGINATOR     = 

OBJECT_NAME    = UNKNOWN
OBJECT_ID      = 
CENTER_NAME    = EARTH
REF_FRAME      = TEME
TIME_SYSTEM    = UTC
MEAN_ELEMENT_THEORY = SGP/SGP4

EPOCH          = 2025-11-09T10:47:43.518336
MEAN_MOTION    = 12.25962960
ECCENTRICITY   = .01362165
INCLINATION    = 74.0256
RA_OF_ASC_NODE = 225.1559
ARG_OF_PERICENTER = 206.4311
MEAN_ANOMALY   = 152.9735

EPHEMERIS_TYPE = 0
CLASSIFICATION_TYPE = U
NORAD_CAT_ID   = 270088
ELEMENT_SET_NO = 999
REV_AT_EPOCH   = 26651
BSTAR          = .22554985E-3
MEAN_MOTION_DOT = .11E-6
MEAN_MOTION_DDOT = 0

